[{"OBJECT_NAME":"SAUDICOMSAT 6","OBJECT_ID":"2007-012E","EPOCH":"2026-03-09T21:15:43.629696","MEAN_MOTION":14.62432218,"ECCENTRICITY":0.00706343,"INCLINATION":98.399,"RA_OF_ASC_NODE":34.6274,"ARG_OF_PERICENTER":276.1767,"MEAN_ANOMALY":83.139,"EPHEMERIS_TYPE":0,"CLASSIFICATION_TYPE":"U","NORAD_CAT_ID":31121,"ELEMENT_SET_NO":999,"REV_AT_EPOCH":567,"BSTAR":0.00019628889,"MEAN_MOTION_DOT":9.75e-6,"MEAN_MOTION_DDOT":0},{"OBJECT_NAME":"SCOUT X-4 DEB","OBJECT_ID":"1963-053J","EPOCH":"2026-03-09T16:55:00.113088","MEAN_MOTION":14.81958963,"ECCENTRICITY":0.01635672,"INCLINATION":78.5671,"RA_OF_ASC_NODE":172.6466,"ARG_OF_PERICENTER":287.7652,"MEAN_ANOMALY":70.5757,"EPHEMERIS_TYPE":0,"CLASSIFICATION_TYPE":"U","NORAD_CAT_ID":3750,"ELEMENT_SET_NO":999,"REV_AT_EPOCH":79379,"BSTAR":0.0036900022,"MEAN_MOTION_DOT":0.00037093,"MEAN_MOTION_DDOT":0}]
